[{"OBJECT_NAME":"OTTER","OBJECT_ID":"2025-009Q","EPOCH":"2026-03-09T17:21:07.902432","MEAN_MOTION":15.27809545,"ECCENTRICITY":0.00035728,"INCLINATION":97.4065,"RA_OF_ASC_NODE":151.3812,"ARG_OF_PERICENTER":310.771,"MEAN_ANOMALY":49.3219,"EPHEMERIS_TYPE":0,"CLASSIFICATION_TYPE":"U","NORAD_CAT_ID":62623,"ELEMENT_SET_NO":999,"REV_AT_EPOCH":6372,"BSTAR":0.00045151206,"MEAN_MOTION_DOT":0.00012198,"MEAN_MOTION_DDOT":0},{"OBJECT_NAME":"STARLINK-34045","OBJECT_ID":"2025-099AD","EPOCH":"2026-03-09T08:05:00.764160","MEAN_MOTION":15.2759687,"ECCENTRICITY":0.00019093,"INCLINATION":43.0012,"RA_OF_ASC_NODE":174.6288,"ARG_OF_PERICENTER":276.8329,"MEAN_ANOMALY":83.2306,"EPHEMERIS_TYPE":0,"CLASSIFICATION_TYPE":"U","NORAD_CAT_ID":63979,"ELEMENT_SET_NO":999,"REV_AT_EPOCH":4723,"BSTAR":0.0010359065,"MEAN_MOTION_DOT":0.00028369,"MEAN_MOTION_DDOT":0}]
